{
  "norad_id": 28372,
  "name": "APRIZESAT 1",
  "history": [
    {
      "epoch": "2026-03-28T22:21:17.030304Z",
      "apogee_km": 752.1991244048886,
      "perigee_km": 687.8083407493159,
      "latitude_deg": -8.572356676338621e-06,
      "longitude_deg": -65.20497040877581,
      "height_km": 698.3511625677996,
      "semi_major_axis_km": 7098.1407325771015,
      "eccentricity": 0.00453575,
      "inclination_deg": 98.6341,
      "raan_deg": 96.4608,
      "arg_perigee_deg": 40.4405,
      "mean_anomaly_deg": 320.0146,
      "mean_motion_rev_day": 14.51730006
    },
    {
      "epoch": "2026-03-29T00:00:31.987872Z",
      "apogee_km": 752.1971010147136,
      "perigee_km": 687.8098686766771,
      "latitude_deg": -5.1956345670901884e-05,
      "longitude_deg": -90.01442081013701,
      "height_km": 698.2773766195374,
      "semi_major_axis_km": 7098.140484845695,
      "eccentricity": 0.0045355,
      "inclination_deg": 98.6341,
      "raan_deg": 96.5316,
      "arg_perigee_deg": 40.2326,
      "mean_anomaly_deg": 320.221,
      "mean_motion_rev_day": 14.51730082
    },
    {
      "epoch": "2026-03-29T23:10:01.360992Z",
      "apogee_km": 752.1595845536121,
      "perigee_km": 687.8391122190751,
      "latitude_deg": 4.060268496044602e-05,
      "longitude_deg": -77.34649410220054,
      "height_km": 697.2955719168541,
      "semi_major_axis_km": 7098.136348386343,
      "eccentricity": 0.0045308,
      "inclination_deg": 98.634,
      "raan_deg": 97.523,
      "arg_perigee_deg": 37.3521,
      "mean_anomaly_deg": 323.0809,
      "mean_motion_rev_day": 14.51731351
    },
    {
      "epoch": "2026-03-30T05:47:01.182624Z",
      "apogee_km": 752.1494410950218,
      "perigee_km": 687.8479974649208,
      "latitude_deg": 5.21299952149746e-05,
      "longitude_deg": -176.58428715640858,
      "height_km": 697.0295054857365,
      "semi_major_axis_km": 7098.1357192799705,
      "eccentricity": 0.00452946,
      "inclination_deg": 98.634,
      "raan_deg": 97.8062,
      "arg_perigee_deg": 36.5345,
      "mean_anomaly_deg": 323.8925,
      "mean_motion_rev_day": 14.51731544
    },
    {
      "epoch": "2026-03-30T12:24:00.986112Z",
      "apogee_km": 752.1390477306413,
      "perigee_km": 687.8564937318588,
      "latitude_deg": 6.0491134524602586e-05,
      "longitude_deg": 84.1780960970088,
      "height_km": 696.7667571832288,
      "semi_major_axis_km": 7098.13477073125,
      "eccentricity": 0.00452813,
      "inclination_deg": 98.634,
      "raan_deg": 98.0895,
      "arg_perigee_deg": 35.7116,
      "mean_anomaly_deg": 324.7093,
      "mean_motion_rev_day": 14.51731835
    },
    {
      "epoch": "2026-03-30T17:21:45.834624Z",
      "apogee_km": 752.1302430985661,
      "perigee_km": 687.8640205941938,
      "latitude_deg": -8.527556241287165e-06,
      "longitude_deg": 9.749937054532044,
      "height_km": 696.5742462110969,
      "semi_major_axis_km": 7098.134131846379,
      "eccentricity": 0.00452698,
      "inclination_deg": 98.634,
      "raan_deg": 98.302,
      "arg_perigee_deg": 35.0942,
      "mean_anomaly_deg": 325.322,
      "mean_motion_rev_day": 14.51732031
    },
    {
      "epoch": "2026-03-31T18:10:30.040896Z",
      "apogee_km": 752.087475038923,
      "perigee_km": 687.8990829260847,
      "latitude_deg": 6.968721977562688e-05,
      "longitude_deg": -2.3910702862592452,
      "height_km": 695.6540300628785,
      "semi_major_axis_km": 7098.130278982503,
      "eccentricity": 0.0045215,
      "inclination_deg": 98.634,
      "raan_deg": 99.3642,
      "arg_perigee_deg": 31.9978,
      "mean_anomaly_deg": 328.3948,
      "mean_motion_rev_day": 14.51733213
    },
    {
      "epoch": "2026-04-01T10:42:59.478336Z",
      "apogee_km": 752.0600928516606,
      "perigee_km": 687.925650210429,
      "latitude_deg": 3.7786301900023265e-05,
      "longitude_deg": 109.51504372997286,
      "height_km": 695.0900516674983,
      "semi_major_axis_km": 7098.129871531044,
      "eccentricity": 0.0045177,
      "inclination_deg": 98.6339,
      "raan_deg": 100.0723,
      "arg_perigee_deg": 29.9383,
      "mean_anomaly_deg": 330.4381,
      "mean_motion_rev_day": 14.51733338
    },
    {
      "epoch": "2026-04-02T11:31:43.542048Z",
      "apogee_km": 752.0115757152835,
      "perigee_km": 687.9651903840258,
      "latitude_deg": -6.28304556429207e-05,
      "longitude_deg": 97.37475865845923,
      "height_km": 694.3105046052552,
      "semi_major_axis_km": 7098.125383049654,
      "eccentricity": 0.0045115,
      "inclination_deg": 98.6339,
      "raan_deg": 101.1346,
      "arg_perigee_deg": 26.8413,
      "mean_anomaly_deg": 333.5101,
      "mean_motion_rev_day": 14.51734715
    },
    {
      "epoch": "2026-04-02T23:06:28.039392Z",
      "apogee_km": 751.9876943879253,
      "perigee_km": 687.980811875087,
      "latitude_deg": -9.091706366532587e-05,
      "longitude_deg": -76.29047610612935,
      "height_km": 693.9716317207059,
      "semi_major_axis_km": 7098.121253131506,
      "eccentricity": 0.00450872,
      "inclination_deg": 98.6339,
      "raan_deg": 101.6303,
      "arg_perigee_deg": 25.3903,
      "mean_anomaly_deg": 334.9492,
      "mean_motion_rev_day": 14.51735982
    },
    {
      "epoch": "2026-04-03T13:59:42.425952Z",
      "apogee_km": 751.9576196119879,
      "perigee_km": 688.0049932945058,
      "latitude_deg": -2.945634209649175e-05,
      "longitude_deg": 60.42546969251981,
      "height_km": 693.5701949675529,
      "semi_major_axis_km": 7098.118306453247,
      "eccentricity": 0.0045049,
      "inclination_deg": 98.6339,
      "raan_deg": 102.2676,
      "arg_perigee_deg": 23.5365,
      "mean_anomaly_deg": 336.7877,
      "mean_motion_rev_day": 14.51736886
    },
    {
      "epoch": "2026-04-03T23:55:11.965728Z",
      "apogee_km": 751.9355955578803,
      "perigee_km": 688.0238685776721,
      "latitude_deg": 1.643644313821474e-05,
      "longitude_deg": -88.4303196855811,
      "height_km": 693.3203115670905,
      "semi_major_axis_km": 7098.116732067776,
      "eccentricity": 0.00450202,
      "inclination_deg": 98.6338,
      "raan_deg": 102.6925,
      "arg_perigee_deg": 22.2903,
      "mean_anomaly_deg": 338.0235,
      "mean_motion_rev_day": 14.51737369
    },
    {
      "epoch": "2026-04-05T12:18:40.264992Z",
      "apogee_km": 751.8747843576357,
      "perigee_km": 688.0768045986106,
      "latitude_deg": 5.3320384052557623e-05,
      "longitude_deg": 85.7652260330814,
      "height_km": 692.5131530400957,
      "semi_major_axis_km": 7098.112794478123,
      "eccentricity": 0.00449401,
      "inclination_deg": 98.6339,
      "raan_deg": 104.2505,
      "arg_perigee_deg": 17.7331,
      "mean_anomaly_deg": 342.542,
      "mean_motion_rev_day": 14.51738577
    },
    {
      "epoch": "2026-04-05T23:53:24.680256Z",
      "apogee_km": 751.8521474665386,
      "perigee_km": 688.0971923717916,
      "latitude_deg": 2.831832010184235e-05,
      "longitude_deg": -87.8996674619626,
      "height_km": 692.2993202938195,
      "semi_major_axis_km": 7098.111669919165,
      "eccentricity": 0.00449098,
      "inclination_deg": 98.6339,
      "raan_deg": 104.7462,
      "arg_perigee_deg": 16.2776,
      "mean_anomaly_deg": 343.9849,
      "mean_motion_rev_day": 14.51738922
    },
    {
      "epoch": "2026-04-07T12:16:52.779072Z",
      "apogee_km": 751.7793155336021,
      "perigee_km": 688.1618166616963,
      "latitude_deg": -2.798423516636668e-06,
      "longitude_deg": 86.29662389263991,
      "height_km": 691.7591070981908,
      "semi_major_axis_km": 7098.107566097649,
      "eccentricity": 0.0044813,
      "inclination_deg": 98.6338,
      "raan_deg": 106.3041,
      "arg_perigee_deg": 11.715,
      "mean_anomaly_deg": 348.5076,
      "mean_motion_rev_day": 14.51740181
    },
    {
      "epoch": "2026-04-08T13:05:36.409920Z",
      "apogee_km": 751.7232210119591,
      "perigee_km": 688.2134911866888,
      "latitude_deg": -3.0385639478625887e-05,
      "longitude_deg": 74.15813219572667,
      "height_km": 691.5109906322106,
      "semi_major_axis_km": 7098.105356099323,
      "eccentricity": 0.00447371,
      "inclination_deg": 98.6337,
      "raan_deg": 107.3664,
      "arg_perigee_deg": 8.5946,
      "mean_anomaly_deg": 351.6004,
      "mean_motion_rev_day": 14.51740859
    },
    {
      "epoch": "2026-04-09T12:15:05.086656Z",
      "apogee_km": 751.6729923777211,
      "perigee_km": 688.2571289473499,
      "latitude_deg": 5.797623691123966e-05,
      "longitude_deg": 86.82896570416361,
      "height_km": 691.3586549302898,
      "semi_major_axis_km": 7098.102060662535,
      "eccentricity": 0.0044671,
      "inclination_deg": 98.6336,
      "raan_deg": 108.3578,
      "arg_perigee_deg": 5.6776,
      "mean_anomaly_deg": 354.4916,
      "mean_motion_rev_day": 14.5174187
    }
  ]
}